[{"OBJECT_NAME":"SPAWAR-CAL-O","OBJECT_ID":"2018-099J","EPOCH":"2026-03-09T17:45:15.080832","MEAN_MOTION":15.31356755,"ECCENTRICITY":0.00072392,"INCLINATION":97.4452,"RA_OF_ASC_NODE":132.0993,"ARG_OF_PERICENTER":285.067,"MEAN_ANOMALY":74.977,"EPHEMERIS_TYPE":0,"CLASSIFICATION_TYPE":"U","NORAD_CAT_ID":43766,"ELEMENT_SET_NO":999,"REV_AT_EPOCH":39828,"BSTAR":0.00069663212,"MEAN_MOTION_DOT":0.00021069,"MEAN_MOTION_DDOT":0},{"OBJECT_NAME":"STARLINK-31385","OBJECT_ID":"2024-031W","EPOCH":"2026-03-09T21:21:34.945056","MEAN_MOTION":15.30187557,"ECCENTRICITY":0.00010354,"INCLINATION":53.1602,"RA_OF_ASC_NODE":293.6053,"ARG_OF_PERICENTER":86.2015,"MEAN_ANOMALY":273.9104,"EPHEMERIS_TYPE":0,"CLASSIFICATION_TYPE":"U","NORAD_CAT_ID":58985,"ELEMENT_SET_NO":999,"REV_AT_EPOCH":11657,"BSTAR":6.2753932e-5,"MEAN_MOTION_DOT":1.499e-5,"MEAN_MOTION_DDOT":0}]
